STARLINK-36489          
1 67328U 26002Z   26019.91668981  .00062790  00000+0  40906-3 0  9997
2 67328  42.9985 245.6232 0001706 273.0478  82.1002 15.75025686  3735
STARLINK-36496          
1 67329U 26002AA  26019.91668981  .00149892  00000+0  96357-3 0  9998
2 67329  42.9984 245.6123 0001589 279.9984  78.9925 15.74993240  3556
STARLINK-36483          
1 67330U 26002AB  26019.91668981  .00136957  00000+0  88198-3 0  9992
2 67330  42.9984 245.6028 0001919 263.4763  99.3571 15.74994428  3735
STARLINK-36494          
1 67331U 26002AC  26019.91668981  .00095088  00000+0  61577-3 0  9994
2 67331  42.9983 245.6175 0001437 280.5274  76.5457 15.75016500  3737
STARLINK-36492          
1 67332U 26002AD  26019.91668981  .00083844  00000+0  54419-3 0  9999
2 67332  42.9984 245.6080 0002384 261.9403  98.9739 15.75009069  3736
STARLINK-36427          
1 67333U 26002AE  26019.91668981 -.01898799  00000+0 -11895-1 0  9995
2 67333  42.9948 244.9797 0001479 271.5407 337.6106 15.78984247  3632
STARLINK-35343          
1 67334U 26003A   26019.91668981 -.01383476  00000+0 -61652-2 0  9995
2 67334  42.9982 149.0851 0001520 280.0311 295.9074 15.86152132  2776
STARLINK-36486          
1 67335U 26003B   26019.91668981 -.01392884  00000+0 -62033-2 0  9993
2 67335  42.9983 149.0807 0001574 278.4507 299.3020 15.86184241  2838
STARLINK-36480          
1 67336U 26003C   26019.91668981 -.01422505  00000+0 -63486-2 0  9991
2 67336  42.9983 149.0749 0001554 277.6967 302.3832 15.86206481  2830
STARLINK-36410          
1 67337U 26003D   26019.91668981 -.01468377  00000+0 -64307-2 0  9992
2 67337  42.9984 149.0688 0001649 276.3186 306.0968 15.86216219  2839
STARLINK-36413          
1 67338U 26003E   26019.91668981 -.01484951  00000+0 -65076-2 0  9993
2 67338  42.9984 149.0635 0001512 277.8591 306.7324 15.86233524  2838
STARLINK-36451          
1 67339U 26003F   26019.91668981 -.01498352  00000+0 -65702-2 0  9990
2 67339  42.9983 149.0574 0001587 274.6382 312.2034 15.86244392  2830
