CCSDS_OMM_VERS = 2.0
CREATION_DATE  = 
ORIGINATOR     = 

OBJECT_NAME    = STARLINK-36489
OBJECT_ID      = 2026-002Z
CENTER_NAME    = EARTH
REF_FRAME      = TEME
TIME_SYSTEM    = UTC
MEAN_ELEMENT_THEORY = SGP/SGP4

EPOCH          = 2026-01-19T22:00:01.999584
MEAN_MOTION    = 15.75025686
ECCENTRICITY   = .00017061
INCLINATION    = 42.9985
RA_OF_ASC_NODE = 245.6232
ARG_OF_PERICENTER = 273.0478
MEAN_ANOMALY   = 82.1002

EPHEMERIS_TYPE = 0
CLASSIFICATION_TYPE = U
NORAD_CAT_ID   = 67328
ELEMENT_SET_NO = 999
REV_AT_EPOCH   = 373
BSTAR          = .40905762E-3
MEAN_MOTION_DOT = .6279E-3
MEAN_MOTION_DDOT = 0

CCSDS_OMM_VERS = 2.0
CREATION_DATE  = 
ORIGINATOR     = 

OBJECT_NAME    = STARLINK-36496
OBJECT_ID      = 2026-002AA
CENTER_NAME    = EARTH
REF_FRAME      = TEME
TIME_SYSTEM    = UTC
MEAN_ELEMENT_THEORY = SGP/SGP4

EPOCH          = 2026-01-19T22:00:01.999584
MEAN_MOTION    = 15.74993240
ECCENTRICITY   = .00015895
INCLINATION    = 42.9984
RA_OF_ASC_NODE = 245.6123
ARG_OF_PERICENTER = 279.9984
MEAN_ANOMALY   = 78.9925

EPHEMERIS_TYPE = 0
CLASSIFICATION_TYPE = U
NORAD_CAT_ID   = 67329
ELEMENT_SET_NO = 999
REV_AT_EPOCH   = 355
BSTAR          = .9635679E-3
MEAN_MOTION_DOT = .149892E-2
MEAN_MOTION_DDOT = 0

CCSDS_OMM_VERS = 2.0
CREATION_DATE  = 
ORIGINATOR     = 

OBJECT_NAME    = STARLINK-36483
OBJECT_ID      = 2026-002AB
CENTER_NAME    = EARTH
REF_FRAME      = TEME
TIME_SYSTEM    = UTC
MEAN_ELEMENT_THEORY = SGP/SGP4

EPOCH          = 2026-01-19T22:00:01.999584
MEAN_MOTION    = 15.74994428
ECCENTRICITY   = .00019194
INCLINATION    = 42.9984
RA_OF_ASC_NODE = 245.6028
ARG_OF_PERICENTER = 263.4763
MEAN_ANOMALY   = 99.3571

EPHEMERIS_TYPE = 0
CLASSIFICATION_TYPE = U
NORAD_CAT_ID   = 67330
ELEMENT_SET_NO = 999
REV_AT_EPOCH   = 373
BSTAR          = .88197633E-3
MEAN_MOTION_DOT = .136957E-2
MEAN_MOTION_DDOT = 0

CCSDS_OMM_VERS = 2.0
CREATION_DATE  = 
ORIGINATOR     = 

OBJECT_NAME    = STARLINK-36494
OBJECT_ID      = 2026-002AC
CENTER_NAME    = EARTH
REF_FRAME      = TEME
TIME_SYSTEM    = UTC
MEAN_ELEMENT_THEORY = SGP/SGP4

EPOCH          = 2026-01-19T22:00:01.999584
MEAN_MOTION    = 15.75016500
ECCENTRICITY   = .00014376
INCLINATION    = 42.9983
RA_OF_ASC_NODE = 245.6175
ARG_OF_PERICENTER = 280.5274
MEAN_ANOMALY   = 76.5457

EPHEMERIS_TYPE = 0
CLASSIFICATION_TYPE = U
NORAD_CAT_ID   = 67331
ELEMENT_SET_NO = 999
REV_AT_EPOCH   = 373
BSTAR          = .61577042E-3
MEAN_MOTION_DOT = .95088E-3
MEAN_MOTION_DDOT = 0

CCSDS_OMM_VERS = 2.0
CREATION_DATE  = 
ORIGINATOR     = 

OBJECT_NAME    = STARLINK-36492
OBJECT_ID      = 2026-002AD
CENTER_NAME    = EARTH
REF_FRAME      = TEME
TIME_SYSTEM    = UTC
MEAN_ELEMENT_THEORY = SGP/SGP4

EPOCH          = 2026-01-19T22:00:01.999584
MEAN_MOTION    = 15.75009069
ECCENTRICITY   = .0002384
INCLINATION    = 42.9984
RA_OF_ASC_NODE = 245.6080
ARG_OF_PERICENTER = 261.9403
MEAN_ANOMALY   = 98.9739

EPHEMERIS_TYPE = 0
CLASSIFICATION_TYPE = U
NORAD_CAT_ID   = 67332
ELEMENT_SET_NO = 999
REV_AT_EPOCH   = 373
BSTAR          = .54418574E-3
MEAN_MOTION_DOT = .83844E-3
MEAN_MOTION_DDOT = 0

CCSDS_OMM_VERS = 2.0
CREATION_DATE  = 
ORIGINATOR     = 

OBJECT_NAME    = STARLINK-36427
OBJECT_ID      = 2026-002AE
CENTER_NAME    = EARTH
REF_FRAME      = TEME
TIME_SYSTEM    = UTC
MEAN_ELEMENT_THEORY = SGP/SGP4

EPOCH          = 2026-01-19T22:00:01.999584
MEAN_MOTION    = 15.78984247
ECCENTRICITY   = .00014792
INCLINATION    = 42.9948
RA_OF_ASC_NODE = 244.9797
ARG_OF_PERICENTER = 271.5407
MEAN_ANOMALY   = 337.6106

EPHEMERIS_TYPE = 0
CLASSIFICATION_TYPE = U
NORAD_CAT_ID   = 67333
ELEMENT_SET_NO = 999
REV_AT_EPOCH   = 363
BSTAR          = -.11895246E-1
MEAN_MOTION_DOT = -.1898799E-1
MEAN_MOTION_DDOT = 0

CCSDS_OMM_VERS = 2.0
CREATION_DATE  = 
ORIGINATOR     = 

OBJECT_NAME    = STARLINK-35343
OBJECT_ID      = 2026-003A
CENTER_NAME    = EARTH
REF_FRAME      = TEME
TIME_SYSTEM    = UTC
MEAN_ELEMENT_THEORY = SGP/SGP4

EPOCH          = 2026-01-19T22:00:01.999584
MEAN_MOTION    = 15.86152132
ECCENTRICITY   = .00015201
INCLINATION    = 42.9982
RA_OF_ASC_NODE = 149.0851
ARG_OF_PERICENTER = 280.0311
MEAN_ANOMALY   = 295.9074

EPHEMERIS_TYPE = 0
CLASSIFICATION_TYPE = U
NORAD_CAT_ID   = 67334
ELEMENT_SET_NO = 999
REV_AT_EPOCH   = 277
BSTAR          = -.61652381E-2
MEAN_MOTION_DOT = -.1383476E-1
MEAN_MOTION_DDOT = 0

CCSDS_OMM_VERS = 2.0
CREATION_DATE  = 
ORIGINATOR     = 

OBJECT_NAME    = STARLINK-36486
OBJECT_ID      = 2026-003B
CENTER_NAME    = EARTH
REF_FRAME      = TEME
TIME_SYSTEM    = UTC
MEAN_ELEMENT_THEORY = SGP/SGP4

EPOCH          = 2026-01-19T22:00:01.999584
MEAN_MOTION    = 15.86184241
ECCENTRICITY   = .00015747
INCLINATION    = 42.9983
RA_OF_ASC_NODE = 149.0807
ARG_OF_PERICENTER = 278.4507
MEAN_ANOMALY   = 299.3020

EPHEMERIS_TYPE = 0
CLASSIFICATION_TYPE = U
NORAD_CAT_ID   = 67335
ELEMENT_SET_NO = 999
REV_AT_EPOCH   = 283
BSTAR          = -.62033254E-2
MEAN_MOTION_DOT = -.1392884E-1
MEAN_MOTION_DDOT = 0

CCSDS_OMM_VERS = 2.0
CREATION_DATE  = 
ORIGINATOR     = 

OBJECT_NAME    = STARLINK-36480
OBJECT_ID      = 2026-003C
CENTER_NAME    = EARTH
REF_FRAME      = TEME
TIME_SYSTEM    = UTC
MEAN_ELEMENT_THEORY = SGP/SGP4

EPOCH          = 2026-01-19T22:00:01.999584
MEAN_MOTION    = 15.86206481
ECCENTRICITY   = .00015549
INCLINATION    = 42.9983
RA_OF_ASC_NODE = 149.0749
ARG_OF_PERICENTER = 277.6967
MEAN_ANOMALY   = 302.3832

EPHEMERIS_TYPE = 0
CLASSIFICATION_TYPE = U
NORAD_CAT_ID   = 67336
ELEMENT_SET_NO = 999
REV_AT_EPOCH   = 283
BSTAR          = -.63485607E-2
MEAN_MOTION_DOT = -.1422505E-1
MEAN_MOTION_DDOT = 0

CCSDS_OMM_VERS = 2.0
CREATION_DATE  = 
ORIGINATOR     = 

OBJECT_NAME    = STARLINK-36410
OBJECT_ID      = 2026-003D
CENTER_NAME    = EARTH
REF_FRAME      = TEME
TIME_SYSTEM    = UTC
MEAN_ELEMENT_THEORY = SGP/SGP4

EPOCH          = 2026-01-19T22:00:01.999584
MEAN_MOTION    = 15.86216219
ECCENTRICITY   = .00016496
INCLINATION    = 42.9984
RA_OF_ASC_NODE = 149.0688
ARG_OF_PERICENTER = 276.3186
MEAN_ANOMALY   = 306.0968

EPHEMERIS_TYPE = 0
CLASSIFICATION_TYPE = U
NORAD_CAT_ID   = 67337
ELEMENT_SET_NO = 999
REV_AT_EPOCH   = 283
BSTAR          = -.6430656E-2
MEAN_MOTION_DOT = -.1468377E-1
MEAN_MOTION_DDOT = 0

CCSDS_OMM_VERS = 2.0
CREATION_DATE  = 
ORIGINATOR     = 

OBJECT_NAME    = STARLINK-36413
OBJECT_ID      = 2026-003E
CENTER_NAME    = EARTH
REF_FRAME      = TEME
TIME_SYSTEM    = UTC
MEAN_ELEMENT_THEORY = SGP/SGP4

EPOCH          = 2026-01-19T22:00:01.999584
MEAN_MOTION    = 15.86233524
ECCENTRICITY   = .00015125
INCLINATION    = 42.9984
RA_OF_ASC_NODE = 149.0635
ARG_OF_PERICENTER = 277.8591
MEAN_ANOMALY   = 306.7324

EPHEMERIS_TYPE = 0
CLASSIFICATION_TYPE = U
NORAD_CAT_ID   = 67338
ELEMENT_SET_NO = 999
REV_AT_EPOCH   = 283
BSTAR          = -.65076166E-2
MEAN_MOTION_DOT = -.1484951E-1
MEAN_MOTION_DDOT = 0

CCSDS_OMM_VERS = 2.0
CREATION_DATE  = 
ORIGINATOR     = 

OBJECT_NAME    = STARLINK-36451
OBJECT_ID      = 2026-003F
CENTER_NAME    = EARTH
REF_FRAME      = TEME
TIME_SYSTEM    = UTC
MEAN_ELEMENT_THEORY = SGP/SGP4

EPOCH          = 2026-01-19T22:00:01.999584
MEAN_MOTION    = 15.86244392
ECCENTRICITY   = .00015876
INCLINATION    = 42.9983
RA_OF_ASC_NODE = 149.0574
ARG_OF_PERICENTER = 274.6382
MEAN_ANOMALY   = 312.2034

EPHEMERIS_TYPE = 0
CLASSIFICATION_TYPE = U
NORAD_CAT_ID   = 67339
ELEMENT_SET_NO = 999
REV_AT_EPOCH   = 283
BSTAR          = -.6570243E-2
MEAN_MOTION_DOT = -.1498352E-1
MEAN_MOTION_DDOT = 0

